HULIANWANG DIGUI-60     
1 65166U 25174C   26198.95424424  .00000013  00000+0 -47779-5 0  9996
2 65166  86.4936 241.6117 0001858 102.8115 257.3226 13.24407128 44865
HULIANWANG DIGUI-61     
1 65167U 25174D   26198.88626811  .00000025  00000+0  24245-4 0  9997
2 65167  86.4944 241.6683 0001678 101.5386 258.5937 13.24407757 44858
HULIANWANG DIGUI-62     
1 65168U 25174E   26198.89370235  .00000039  00000+0  56621-4 0  9993
2 65168  86.4886 241.4793 0001772 105.5392 254.5938 13.24409339 44855
HULIANWANG DIGUI-63     
1 65169U 25174F   26198.90119423  .00000045  00000+0  71573-4 0  9996
2 65169  86.4938 241.6544 0001665 105.3857 254.7461 13.24403623 44858
HULIANWANG DIGUI-64     
1 65170U 25174G   26198.90890287  .00000057  00000+0  99286-4 0  9996
2 65170  86.4897 241.5239 0001834 104.5292 255.6045 13.24407599 44850
HULIANWANG DIGUI-65     
1 65171U 25174H   26198.92396129  .00000048  00000+0  78789-4 0  9990
2 65171  86.4861 241.4109 0001723 100.0370 260.0959 13.24407627 44858
HULIANWANG DIGUI-66     
1 65172U 25174J   26198.91644967  .00000060  00000+0  10512-3 0  9999
2 65172  86.4896 241.5252 0001854 102.4375 257.6967 13.24407284 44853
HULIANWANG DIGUI-67     
1 65173U 25174K   26198.93152335  .00000034  00000+0  44620-4 0  9994
2 65173  86.4908 241.5687 0001829 100.7519 259.3821 13.24408790 44821
HULIANWANG DIGUI-68     
1 65228U 25178A   26198.87851663  .00000024  00000+0  21533-4 0  9999
2 65228  86.4991   3.1623 0001992  91.5042 268.6321 13.24411273 44373
HULIANWANG DIGUI-69     
1 65229U 25178B   26198.94661906  .00000032  00000+0  39857-4 0  9994
2 65229  86.5011   3.2002 0001904  92.1272 268.0080 13.24412682 44387
HULIANWANG DIGUI-70     
1 65230U 25178C   26198.93905864  .00000034  00000+0  46157-4 0  9992
2 65230  86.4950   2.9922 0001986  89.9523 270.1839 13.24411796 44381
HULIANWANG DIGUI-71     
1 65231U 25178D   26198.93152079  .00000021  00000+0  14895-4 0  9995
2 65231  86.5008   3.1850 0001970  90.6141 269.5219 13.24411476 44387
HULIANWANG DIGUI-72     
1 65232U 25178E   26198.92396756  .00000012  00000+0 -65584-5 0  9990
2 65232  86.4992   3.1237 0001974  90.7521 269.3839 13.24410982 44382
HULIANWANG DIGUI-73     
1 65305U 25187A   26198.96094303 -.00000095  00000+0  62718-4 0  9994
2 65305  50.0053  95.5117 0000082 332.4781  27.6087 13.29323629 43793
HULIANWANG DIGUI-74     
1 65306U 25187B   26198.94433129 -.00000096  00000+0  61410-4 0  9995
2 65306  50.0095  95.5339 0000087 318.6045  41.4821 13.29321626 43795
HULIANWANG DIGUI-75     
1 65307U 25187C   26198.92763949 -.00000095  00000+0  62439-4 0  9991
2 65307  50.0088  95.4274 0000093 333.1065  26.9802 13.29322812 43791
