{"fetched_at":"2026-07-18T06:28:10.739Z","source":"https://celestrak.org/NORAD/elements/gp.php?NAME=HULIANWANG&FORMAT=JSON","constellation":"guowang","records":[{"OBJECT_NAME":"HULIANWANG DIGUI-60","OBJECT_ID":"2025-174C","EPOCH":"2026-07-17T22:54:06.702336","CLASSIFICATION_TYPE":"U","MEAN_MOTION":13.24407128,"ECCENTRICITY":0.00018584,"INCLINATION":86.4936,"RA_OF_ASC_NODE":241.6117,"ARG_OF_PERICENTER":102.8115,"MEAN_ANOMALY":257.3226,"EPHEMERIS_TYPE":0,"NORAD_CAT_ID":65166,"ELEMENT_SET_NO":999,"REV_AT_EPOCH":4486,"BSTAR":-0.000004777859,"MEAN_MOTION_DOT":1.3e-7,"MEAN_MOTION_DDOT":0},{"OBJECT_NAME":"HULIANWANG DIGUI-61","OBJECT_ID":"2025-174D","EPOCH":"2026-07-17T21:16:13.564704","CLASSIFICATION_TYPE":"U","MEAN_MOTION":13.24407757,"ECCENTRICITY":0.0001678,"INCLINATION":86.4944,"RA_OF_ASC_NODE":241.6683,"ARG_OF_PERICENTER":101.5386,"MEAN_ANOMALY":258.5937,"EPHEMERIS_TYPE":0,"NORAD_CAT_ID":65167,"ELEMENT_SET_NO":999,"REV_AT_EPOCH":4485,"BSTAR":0.000024244541,"MEAN_MOTION_DOT":2.5e-7,"MEAN_MOTION_DDOT":0},{"OBJECT_NAME":"HULIANWANG DIGUI-62","OBJECT_ID":"2025-174E","EPOCH":"2026-07-17T21:26:55.883040","CLASSIFICATION_TYPE":"U","MEAN_MOTION":13.24409339,"ECCENTRICITY":0.00017728,"INCLINATION":86.4886,"RA_OF_ASC_NODE":241.4793,"ARG_OF_PERICENTER":105.5392,"MEAN_ANOMALY":254.5938,"EPHEMERIS_TYPE":0,"NORAD_CAT_ID":65168,"ELEMENT_SET_NO":999,"REV_AT_EPOCH":4485,"BSTAR":0.00005662054,"MEAN_MOTION_DOT":3.9e-7,"MEAN_MOTION_DDOT":0},{"OBJECT_NAME":"HULIANWANG DIGUI-63","OBJECT_ID":"2025-174F","EPOCH":"2026-07-17T21:37:43.181472","CLASSIFICATION_TYPE":"U","MEAN_MOTION":13.24403623,"ECCENTRICITY":0.00016658,"INCLINATION":86.4938,"RA_OF_ASC_NODE":241.6544,"ARG_OF_PERICENTER":105.3857,"MEAN_ANOMALY":254.7461,"EPHEMERIS_TYPE":0,"NORAD_CAT_ID":65169,"ELEMENT_SET_NO":999,"REV_AT_EPOCH":4485,"BSTAR":0.000071572697,"MEAN_MOTION_DOT":4.5e-7,"MEAN_MOTION_DDOT":0},{"OBJECT_NAME":"HULIANWANG DIGUI-64","OBJECT_ID":"2025-174G","EPOCH":"2026-07-17T21:48:49.207968","CLASSIFICATION_TYPE":"U","MEAN_MOTION":13.24407599,"ECCENTRICITY":0.00018346,"INCLINATION":86.4897,"RA_OF_ASC_NODE":241.5239,"ARG_OF_PERICENTER":104.5292,"MEAN_ANOMALY":255.6045,"EPHEMERIS_TYPE":0,"NORAD_CAT_ID":65170,"ELEMENT_SET_NO":999,"REV_AT_EPOCH":4485,"BSTAR":0.000099285972,"MEAN_MOTION_DOT":5.7e-7,"MEAN_MOTION_DDOT":0},{"OBJECT_NAME":"HULIANWANG DIGUI-65","OBJECT_ID":"2025-174H","EPOCH":"2026-07-17T22:10:30.255456","CLASSIFICATION_TYPE":"U","MEAN_MOTION":13.24407627,"ECCENTRICITY":0.00017232,"INCLINATION":86.4861,"RA_OF_ASC_NODE":241.4109,"ARG_OF_PERICENTER":100.037,"MEAN_ANOMALY":260.0959,"EPHEMERIS_TYPE":0,"NORAD_CAT_ID":65171,"ELEMENT_SET_NO":999,"REV_AT_EPOCH":4485,"BSTAR":0.000078788649,"MEAN_MOTION_DOT":4.8e-7,"MEAN_MOTION_DDOT":0},{"OBJECT_NAME":"HULIANWANG DIGUI-66","OBJECT_ID":"2025-174J","EPOCH":"2026-07-17T21:59:41.251488","CLASSIFICATION_TYPE":"U","MEAN_MOTION":13.24407284,"ECCENTRICITY":0.00018546,"INCLINATION":86.4896,"RA_OF_ASC_NODE":241.5252,"ARG_OF_PERICENTER":102.4375,"MEAN_ANOMALY":257.6967,"EPHEMERIS_TYPE":0,"NORAD_CAT_ID":65172,"ELEMENT_SET_NO":999,"REV_AT_EPOCH":4485,"BSTAR":0.00010512042,"MEAN_MOTION_DOT":6e-7,"MEAN_MOTION_DDOT":0},{"OBJECT_NAME":"HULIANWANG DIGUI-67","OBJECT_ID":"2025-174K","EPOCH":"2026-07-17T22:21:23.617440","CLASSIFICATION_TYPE":"U","MEAN_MOTION":13.2440879,"ECCENTRICITY":0.00018294,"INCLINATION":86.4908,"RA_OF_ASC_NODE":241.5687,"ARG_OF_PERICENTER":100.7519,"MEAN_ANOMALY":259.3821,"EPHEMERIS_TYPE":0,"NORAD_CAT_ID":65173,"ELEMENT_SET_NO":999,"REV_AT_EPOCH":4482,"BSTAR":0.000044619801,"MEAN_MOTION_DOT":3.4e-7,"MEAN_MOTION_DDOT":0},{"OBJECT_NAME":"HULIANWANG DIGUI-68","OBJECT_ID":"2025-178A","EPOCH":"2026-07-17T21:05:03.836832","CLASSIFICATION_TYPE":"U","MEAN_MOTION":13.24411273,"ECCENTRICITY":0.00019924,"INCLINATION":86.4991,"RA_OF_ASC_NODE":3.1623,"ARG_OF_PERICENTER":91.5042,"MEAN_ANOMALY":268.6321,"EPHEMERIS_TYPE":0,"NORAD_CAT_ID":65228,"ELEMENT_SET_NO":999,"REV_AT_EPOCH":4437,"BSTAR":0.000021533133,"MEAN_MOTION_DOT":2.4e-7,"MEAN_MOTION_DDOT":0},{"OBJECT_NAME":"HULIANWANG DIGUI-69","OBJECT_ID":"2025-178B","EPOCH":"2026-07-17T22:43:07.886784","CLASSIFICATION_TYPE":"U","MEAN_MOTION":13.24412682,"ECCENTRICITY":0.00019048,"INCLINATION":86.5011,"RA_OF_ASC_NODE":3.2002,"ARG_OF_PERICENTER":92.1272,"MEAN_ANOMALY":268.008,"EPHEMERIS_TYPE":0,"NORAD_CAT_ID":65229,"ELEMENT_SET_NO":999,"REV_AT_EPOCH":4438,"BSTAR":0.000039857384,"MEAN_MOTION_DOT":3.2e-7,"MEAN_MOTION_DDOT":0},{"OBJECT_NAME":"HULIANWANG DIGUI-70","OBJECT_ID":"2025-178C","EPOCH":"2026-07-17T22:32:14.666496","CLASSIFICATION_TYPE":"U","MEAN_MOTION":13.24411796,"ECCENTRICITY":0.00019865,"INCLINATION":86.495,"RA_OF_ASC_NODE":2.9922,"ARG_OF_PERICENTER":89.9523,"MEAN_ANOMALY":270.1839,"EPHEMERIS_TYPE":0,"NORAD_CAT_ID":65230,"ELEMENT_SET_NO":999,"REV_AT_EPOCH":4438,"BSTAR":0.000046157128,"MEAN_MOTION_DOT":3.4e-7,"MEAN_MOTION_DDOT":0},{"OBJECT_NAME":"HULIANWANG DIGUI-71","OBJECT_ID":"2025-178D","EPOCH":"2026-07-17T22:21:23.396256","CLASSIFICATION_TYPE":"U","MEAN_MOTION":13.24411476,"ECCENTRICITY":0.00019706,"INCLINATION":86.5008,"RA_OF_ASC_NODE":3.185,"ARG_OF_PERICENTER":90.6141,"MEAN_ANOMALY":269.5219,"EPHEMERIS_TYPE":0,"NORAD_CAT_ID":65231,"ELEMENT_SET_NO":999,"REV_AT_EPOCH":4438,"BSTAR":0.000014894911,"MEAN_MOTION_DOT":2.1e-7,"MEAN_MOTION_DDOT":0},{"OBJECT_NAME":"HULIANWANG DIGUI-72","OBJECT_ID":"2025-178E","EPOCH":"2026-07-17T22:10:30.797184","CLASSIFICATION_TYPE":"U","MEAN_MOTION":13.24410982,"ECCENTRICITY":0.00019745,"INCLINATION":86.4992,"RA_OF_ASC_NODE":3.1237,"ARG_OF_PERICENTER":90.7521,"MEAN_ANOMALY":269.3839,"EPHEMERIS_TYPE":0,"NORAD_CAT_ID":65232,"ELEMENT_SET_NO":999,"REV_AT_EPOCH":4438,"BSTAR":-0.000006558372,"MEAN_MOTION_DOT":1.2e-7,"MEAN_MOTION_DDOT":0},{"OBJECT_NAME":"HULIANWANG DIGUI-73","OBJECT_ID":"2025-187A","EPOCH":"2026-07-17T23:03:45.477792","CLASSIFICATION_TYPE":"U","MEAN_MOTION":13.29323629,"ECCENTRICITY":0.00000828,"INCLINATION":50.0053,"RA_OF_ASC_NODE":95.5117,"ARG_OF_PERICENTER":332.4781,"MEAN_ANOMALY":27.6087,"EPHEMERIS_TYPE":0,"NORAD_CAT_ID":65305,"ELEMENT_SET_NO":999,"REV_AT_EPOCH":4379,"BSTAR":0.000062717996,"MEAN_MOTION_DOT":-9.5e-7,"MEAN_MOTION_DDOT":0},{"OBJECT_NAME":"HULIANWANG DIGUI-74","OBJECT_ID":"2025-187B","EPOCH":"2026-07-17T22:39:50.223456","CLASSIFICATION_TYPE":"U","MEAN_MOTION":13.29321626,"ECCENTRICITY":0.00000876,"INCLINATION":50.0095,"RA_OF_ASC_NODE":95.5339,"ARG_OF_PERICENTER":318.6045,"MEAN_ANOMALY":41.4821,"EPHEMERIS_TYPE":0,"NORAD_CAT_ID":65306,"ELEMENT_SET_NO":999,"REV_AT_EPOCH":4379,"BSTAR":0.000061409864,"MEAN_MOTION_DOT":-9.6e-7,"MEAN_MOTION_DDOT":0},{"OBJECT_NAME":"HULIANWANG DIGUI-75","OBJECT_ID":"2025-187C","EPOCH":"2026-07-17T22:15:48.051936","CLASSIFICATION_TYPE":"U","MEAN_MOTION":13.29322812,"ECCENTRICITY":0.00000934,"INCLINATION":50.0088,"RA_OF_ASC_NODE":95.4274,"ARG_OF_PERICENTER":333.1065,"MEAN_ANOMALY":26.9802,"EPHEMERIS_TYPE":0,"NORAD_CAT_ID":65307,"ELEMENT_SET_NO":999,"REV_AT_EPOCH":4379,"BSTAR":0.000062438551,"MEAN_MOTION_DOT":-9.5e-7,"MEAN_MOTION_DDOT":0}]}
